HTV-X1                  
1 66174U 25241A   26093.49594286  .00005153  00000+0  17316-3 0  9999
2 66174  51.6362 313.4962 0007288 268.5107  91.5039 15.32514940 24749
SZ-21 MODULE            
1 66515U 25246C   26093.25289166  .00060256  00000+0  47388-3 0  9992
2 66515  41.4748  51.9348 0002892 225.3271 134.7336 15.70567905 21933
SHENZHOU-22             
1 66645U 25272A   26093.34243670  .00031546  00000+0  35442-3 0  9993
2 66645  41.4675  58.0158 0003768 113.6491 246.4744 15.61928925281721
SOYUZ-MS 28             
1 66664U 25275A   26093.48852458  .00011755  00000+0  22309-3 0  9990
2 66664  51.6327 309.7562 0006234 267.4493  92.5781 15.48743801560268
DUPLEX                  
1 66906U 98067XS  26093.16810926  .00043515  00000+0  57537-3 0  9997
2 66906  51.6284 306.8678 0003125 227.1733 132.8996 15.57885529 18944
ISS OBJECT XT           
1 66907U 98067XT  26093.28441294  .00361691  00000+0  18784-2 0  9997
2 66907  51.6220 299.3474 0006938 241.0922 118.9383 15.79389654 19055
ISS OBJECT XU           
1 66908U 98067XU  26093.27963861  .00376814  00000+0  19242-2 0  9999
2 66908  51.6221 299.3108 0007096 240.6488 119.3805 15.79720595 19056
SILVERSAT               
1 66909U 98067XV  26092.58307897  .00490335  00000+0  18699-2 0  9994
2 66909  51.6187 301.3924 0008484 244.3474 115.6654 15.85656241 18969
ISS OBJECT XW           
1 66910U 98067XW  26093.29727467  .00303275  00000+0  17271-2 0  9995
2 66910  51.6203 299.4256 0007291 236.8734 123.1567 15.77493204 19052
ISS OBJECT XX           
1 66911U 98067XX  26092.94054922  .01110416  58672-3  27185-2 0  9997
2 66911  51.6159 297.7328 0010664 251.8408 108.1439 15.95513790 19039
ISS OBJECT XY           
1 66912U 98067XY  26093.27475157  .00163051  00000+0  13566-2 0  9990
2 66912  51.6253 302.3137 0004795 234.0576 125.9976 15.69079416 19006
KNACKSAT-2              
1 67683U 98067XZ  26092.92528466  .00067722  00000+0  10267-2 0  9992
2 67683  51.6310 311.2469 0010421 275.3642  84.6159 15.53933498  8552
